STARLINK-35382          
1 66019U 25232Q   25316.91668981 -.02062089  00000+0 -45888-1 0  9993
2 66019  53.1588 287.7193 0001448  95.9746  30.7616 15.46560392  4758
STARLINK-35430          
1 66020U 25232R   25316.92321651  .00090691  00000+0  22403-2 0  9991
2 66020  53.1597 288.0142 0001354 121.2149 238.8989 15.39757179  5516
STARLINK-35432          
1 66021U 25232S   25316.92788636  .00092291  00000+0  22836-2 0  9990
2 66021  53.1601 288.0437 0001626 110.1909 249.9271 15.39698053  5537
STARLINK-35340          
1 66022U 25232T   25316.91668981  .00079859  00000+0  19898-2 0  9999
2 66022  53.1600 287.9914 0001404 114.7017 234.8576 15.39555541  4746
STARLINK-35394          
1 66023U 25232U   25316.91668981  .00086051  00000+0  21445-2 0  9993
2 66023  53.1601 287.9396 0001312  88.1561 287.2390 15.39513522  4747
STARLINK-35410          
1 66024U 25232V   25316.91668981  .00090569  00000+0  22552-2 0  9993
2 66024  53.1591 287.8370 0001593  98.5979 328.2838 15.39513975  4741
STARLINK-35280          
1 66025U 25232W   25316.91668981  .00083792  00000+0  20891-2 0  9998
2 66025  53.1597 287.8881 0001274  94.7364 306.4089 15.39513120  4688
STARLINK-34812          
1 66026U 25232X   25316.91668981  .00111432  00000+0  27664-2 0  9997
2 66026  53.1587 287.7865 0001501  74.3444  18.2855 15.39496973  4691
STARLINK-35341          
1 66027U 25232Y   25316.91668981  .00082802  00000+0  20626-2 0  9997
2 66027  53.1591 287.6291 0001408 120.3765  49.4649 15.39546657  4741
STARLINK-35339          
1 66028U 25232Z   25316.91668981  .00085693  00000+0  21353-2 0  9997
2 66028  53.1586 287.5775 0001347 111.5177  84.1444 15.39519169  4683
STARLINK-35399          
1 66029U 25232AA  25316.91668981  .00083641  00000+0  20850-2 0  9990
2 66029  53.1587 287.5260 0001272  93.0179 128.4015 15.39519950  4681
STARLINK-35431          
1 66030U 25232AB  25316.91668981 -.00067338  00000+0 -16918-2 0  9999
2 66030  53.1595 287.4736 0001154  83.9518 163.3074 15.39558656  4682
