CCSDS_OMM_VERS = 2.0
CREATION_DATE  = 
ORIGINATOR     = 

OBJECT_NAME    = STARLINK-35382
OBJECT_ID      = 2025-232Q
CENTER_NAME    = EARTH
REF_FRAME      = TEME
TIME_SYSTEM    = UTC
MEAN_ELEMENT_THEORY = SGP/SGP4

EPOCH          = 2025-11-12T22:00:01.999584
MEAN_MOTION    = 15.46560392
ECCENTRICITY   = .00014486
INCLINATION    = 53.1588
RA_OF_ASC_NODE = 287.7193
ARG_OF_PERICENTER = 95.9746
MEAN_ANOMALY   = 30.7616

EPHEMERIS_TYPE = 0
CLASSIFICATION_TYPE = U
NORAD_CAT_ID   = 66019
ELEMENT_SET_NO = 999
REV_AT_EPOCH   = 475
BSTAR          = -.45887734E-1
MEAN_MOTION_DOT = -.2062089E-1
MEAN_MOTION_DDOT = 0

CCSDS_OMM_VERS = 2.0
CREATION_DATE  = 
ORIGINATOR     = 

OBJECT_NAME    = STARLINK-35430
OBJECT_ID      = 2025-232R
CENTER_NAME    = EARTH
REF_FRAME      = TEME
TIME_SYSTEM    = UTC
MEAN_ELEMENT_THEORY = SGP/SGP4

EPOCH          = 2025-11-12T22:09:25.906464
MEAN_MOTION    = 15.39757179
ECCENTRICITY   = .00013543
INCLINATION    = 53.1597
RA_OF_ASC_NODE = 288.0142
ARG_OF_PERICENTER = 121.2149
MEAN_ANOMALY   = 238.8989

EPHEMERIS_TYPE = 0
CLASSIFICATION_TYPE = U
NORAD_CAT_ID   = 66020
ELEMENT_SET_NO = 999
REV_AT_EPOCH   = 551
BSTAR          = .22402652E-2
MEAN_MOTION_DOT = .90691E-3
MEAN_MOTION_DDOT = 0

CCSDS_OMM_VERS = 2.0
CREATION_DATE  = 
ORIGINATOR     = 

OBJECT_NAME    = STARLINK-35432
OBJECT_ID      = 2025-232S
CENTER_NAME    = EARTH
REF_FRAME      = TEME
TIME_SYSTEM    = UTC
MEAN_ELEMENT_THEORY = SGP/SGP4

EPOCH          = 2025-11-12T22:16:09.381504
MEAN_MOTION    = 15.39698053
ECCENTRICITY   = .00016267
INCLINATION    = 53.1601
RA_OF_ASC_NODE = 288.0437
ARG_OF_PERICENTER = 110.1909
MEAN_ANOMALY   = 249.9271

EPHEMERIS_TYPE = 0
CLASSIFICATION_TYPE = U
NORAD_CAT_ID   = 66021
ELEMENT_SET_NO = 999
REV_AT_EPOCH   = 553
BSTAR          = .22835667E-2
MEAN_MOTION_DOT = .92291E-3
MEAN_MOTION_DDOT = 0

CCSDS_OMM_VERS = 2.0
CREATION_DATE  = 
ORIGINATOR     = 

OBJECT_NAME    = STARLINK-35340
OBJECT_ID      = 2025-232T
CENTER_NAME    = EARTH
REF_FRAME      = TEME
TIME_SYSTEM    = UTC
MEAN_ELEMENT_THEORY = SGP/SGP4

EPOCH          = 2025-11-12T22:00:01.999584
MEAN_MOTION    = 15.39555541
ECCENTRICITY   = .0001404
INCLINATION    = 53.1600
RA_OF_ASC_NODE = 287.9914
ARG_OF_PERICENTER = 114.7017
MEAN_ANOMALY   = 234.8576

EPHEMERIS_TYPE = 0
CLASSIFICATION_TYPE = U
NORAD_CAT_ID   = 66022
ELEMENT_SET_NO = 999
REV_AT_EPOCH   = 474
BSTAR          = .19898152E-2
MEAN_MOTION_DOT = .79859E-3
MEAN_MOTION_DDOT = 0

CCSDS_OMM_VERS = 2.0
CREATION_DATE  = 
ORIGINATOR     = 

OBJECT_NAME    = STARLINK-35394
OBJECT_ID      = 2025-232U
CENTER_NAME    = EARTH
REF_FRAME      = TEME
TIME_SYSTEM    = UTC
MEAN_ELEMENT_THEORY = SGP/SGP4

EPOCH          = 2025-11-12T22:00:01.999584
MEAN_MOTION    = 15.39513522
ECCENTRICITY   = .0001312
INCLINATION    = 53.1601
RA_OF_ASC_NODE = 287.9396
ARG_OF_PERICENTER = 88.1561
MEAN_ANOMALY   = 287.2390

EPHEMERIS_TYPE = 0
CLASSIFICATION_TYPE = U
NORAD_CAT_ID   = 66023
ELEMENT_SET_NO = 999
REV_AT_EPOCH   = 474
BSTAR          = .21445425E-2
MEAN_MOTION_DOT = .86051E-3
MEAN_MOTION_DDOT = 0

CCSDS_OMM_VERS = 2.0
CREATION_DATE  = 
ORIGINATOR     = 

OBJECT_NAME    = STARLINK-35410
OBJECT_ID      = 2025-232V
CENTER_NAME    = EARTH
REF_FRAME      = TEME
TIME_SYSTEM    = UTC
MEAN_ELEMENT_THEORY = SGP/SGP4

EPOCH          = 2025-11-12T22:00:01.999584
MEAN_MOTION    = 15.39513975
ECCENTRICITY   = .00015933
INCLINATION    = 53.1591
RA_OF_ASC_NODE = 287.8370
ARG_OF_PERICENTER = 98.5979
MEAN_ANOMALY   = 328.2838

EPHEMERIS_TYPE = 0
CLASSIFICATION_TYPE = U
NORAD_CAT_ID   = 66024
ELEMENT_SET_NO = 999
REV_AT_EPOCH   = 474
BSTAR          = .2255227E-2
MEAN_MOTION_DOT = .90569E-3
MEAN_MOTION_DDOT = 0

CCSDS_OMM_VERS = 2.0
CREATION_DATE  = 
ORIGINATOR     = 

OBJECT_NAME    = STARLINK-35280
OBJECT_ID      = 2025-232W
CENTER_NAME    = EARTH
REF_FRAME      = TEME
TIME_SYSTEM    = UTC
MEAN_ELEMENT_THEORY = SGP/SGP4

EPOCH          = 2025-11-12T22:00:01.999584
MEAN_MOTION    = 15.39513120
ECCENTRICITY   = .0001274
INCLINATION    = 53.1597
RA_OF_ASC_NODE = 287.8881
ARG_OF_PERICENTER = 94.7364
MEAN_ANOMALY   = 306.4089

EPHEMERIS_TYPE = 0
CLASSIFICATION_TYPE = U
NORAD_CAT_ID   = 66025
ELEMENT_SET_NO = 999
REV_AT_EPOCH   = 468
BSTAR          = .20891364E-2
MEAN_MOTION_DOT = .83792E-3
MEAN_MOTION_DDOT = 0

CCSDS_OMM_VERS = 2.0
CREATION_DATE  = 
ORIGINATOR     = 

OBJECT_NAME    = STARLINK-34812
OBJECT_ID      = 2025-232X
CENTER_NAME    = EARTH
REF_FRAME      = TEME
TIME_SYSTEM    = UTC
MEAN_ELEMENT_THEORY = SGP/SGP4

EPOCH          = 2025-11-12T22:00:01.999584
MEAN_MOTION    = 15.39496973
ECCENTRICITY   = .00015016
INCLINATION    = 53.1587
RA_OF_ASC_NODE = 287.7865
ARG_OF_PERICENTER = 74.3444
MEAN_ANOMALY   = 18.2855

EPHEMERIS_TYPE = 0
CLASSIFICATION_TYPE = U
NORAD_CAT_ID   = 66026
ELEMENT_SET_NO = 999
REV_AT_EPOCH   = 469
BSTAR          = .27663842E-2
MEAN_MOTION_DOT = .111432E-2
MEAN_MOTION_DDOT = 0

CCSDS_OMM_VERS = 2.0
CREATION_DATE  = 
ORIGINATOR     = 

OBJECT_NAME    = STARLINK-35341
OBJECT_ID      = 2025-232Y
CENTER_NAME    = EARTH
REF_FRAME      = TEME
TIME_SYSTEM    = UTC
MEAN_ELEMENT_THEORY = SGP/SGP4

EPOCH          = 2025-11-12T22:00:01.999584
MEAN_MOTION    = 15.39546657
ECCENTRICITY   = .00014084
INCLINATION    = 53.1591
RA_OF_ASC_NODE = 287.6291
ARG_OF_PERICENTER = 120.3765
MEAN_ANOMALY   = 49.4649

EPHEMERIS_TYPE = 0
CLASSIFICATION_TYPE = U
NORAD_CAT_ID   = 66027
ELEMENT_SET_NO = 999
REV_AT_EPOCH   = 474
BSTAR          = .20625646E-2
MEAN_MOTION_DOT = .82802E-3
MEAN_MOTION_DDOT = 0

CCSDS_OMM_VERS = 2.0
CREATION_DATE  = 
ORIGINATOR     = 

OBJECT_NAME    = STARLINK-35339
OBJECT_ID      = 2025-232Z
CENTER_NAME    = EARTH
REF_FRAME      = TEME
TIME_SYSTEM    = UTC
MEAN_ELEMENT_THEORY = SGP/SGP4

EPOCH          = 2025-11-12T22:00:01.999584
MEAN_MOTION    = 15.39519169
ECCENTRICITY   = .00013476
INCLINATION    = 53.1586
RA_OF_ASC_NODE = 287.5775
ARG_OF_PERICENTER = 111.5177
MEAN_ANOMALY   = 84.1444

EPHEMERIS_TYPE = 0
CLASSIFICATION_TYPE = U
NORAD_CAT_ID   = 66028
ELEMENT_SET_NO = 999
REV_AT_EPOCH   = 468
BSTAR          = .21353452E-2
MEAN_MOTION_DOT = .85693E-3
MEAN_MOTION_DDOT = 0

CCSDS_OMM_VERS = 2.0
CREATION_DATE  = 
ORIGINATOR     = 

OBJECT_NAME    = STARLINK-35399
OBJECT_ID      = 2025-232AA
CENTER_NAME    = EARTH
REF_FRAME      = TEME
TIME_SYSTEM    = UTC
MEAN_ELEMENT_THEORY = SGP/SGP4

EPOCH          = 2025-11-12T22:00:01.999584
MEAN_MOTION    = 15.39519950
ECCENTRICITY   = .00012723
INCLINATION    = 53.1587
RA_OF_ASC_NODE = 287.5260
ARG_OF_PERICENTER = 93.0179
MEAN_ANOMALY   = 128.4015

EPHEMERIS_TYPE = 0
CLASSIFICATION_TYPE = U
NORAD_CAT_ID   = 66029
ELEMENT_SET_NO = 999
REV_AT_EPOCH   = 468
BSTAR          = .20849659E-2
MEAN_MOTION_DOT = .83641E-3
MEAN_MOTION_DDOT = 0

CCSDS_OMM_VERS = 2.0
CREATION_DATE  = 
ORIGINATOR     = 

OBJECT_NAME    = STARLINK-35431
OBJECT_ID      = 2025-232AB
CENTER_NAME    = EARTH
REF_FRAME      = TEME
TIME_SYSTEM    = UTC
MEAN_ELEMENT_THEORY = SGP/SGP4

EPOCH          = 2025-11-12T22:00:01.999584
MEAN_MOTION    = 15.39558656
ECCENTRICITY   = .00011549
INCLINATION    = 53.1595
RA_OF_ASC_NODE = 287.4736
ARG_OF_PERICENTER = 83.9518
MEAN_ANOMALY   = 163.3074

EPHEMERIS_TYPE = 0
CLASSIFICATION_TYPE = U
NORAD_CAT_ID   = 66030
ELEMENT_SET_NO = 999
REV_AT_EPOCH   = 468
BSTAR          = -.16917663E-2
MEAN_MOTION_DOT = -.67338E-3
MEAN_MOTION_DDOT = 0

